{
  "norad_id": 39768,
  "name": "SOCRATES",
  "history": [
    {
      "epoch": "2026-03-28T19:59:05.499456Z",
      "apogee_km": 587.6026733247563,
      "perigee_km": 580.4880191851189,
      "latitude_deg": 2.11417639777803e-05,
      "longitude_deg": 74.71219770800246,
      "height_km": 588.8786102273717,
      "semi_major_axis_km": 6962.182346254937,
      "eccentricity": 0.00051095,
      "inclination_deg": 97.8967,
      "raan_deg": 200.7326,
      "arg_perigee_deg": 239.8551,
      "mean_anomaly_deg": 120.2163,
      "mean_motion_rev_day": 14.94461294
    },
    {
      "epoch": "2026-03-29T04:01:10.055136Z",
      "apogee_km": 587.6056255224394,
      "perigee_km": 580.4638297642232,
      "latitude_deg": -7.319044139733568e-05,
      "longitude_deg": -45.79994050705677,
      "height_km": 588.9447340499797,
      "semi_major_axis_km": 6962.171727643331,
      "eccentricity": 0.0005129,
      "inclination_deg": 97.8967,
      "raan_deg": 201.0694,
      "arg_perigee_deg": 238.5487,
      "mean_anomaly_deg": 121.5231,
      "mean_motion_rev_day": 14.94464713
    }
  ]
}